0 DELTA 1 DEB
1 21501U 75052FW  13282.48845310  .00000366  00000-0  15747-2 0  1080
2 21501 099.8080 216.6784 0553929 058.6483 354.7664 12.46523929 20051
0 DELTA 1 DEB
1 21501U 75052FW  13284.10709131  .00000363  00000-0  15645-2 0  1096
2 21501 099.8083 218.0093 0553953 055.3118 058.3782 12.46525297 20259
0 DELTA 1 DEB
1 21501U 75052FW  13285.46027902  .00000348  00000-0  15031-2 0  1109
2 21501 099.8086 219.1218 0553983 052.5229 010.7920 12.46526487 20425
0 DELTA 1 DEB
1 21501U 75052FW  13286.50064834  .00000339  00000-0  14690-2 0  1111
2 21501 099.8088 219.9771 0554045 050.3797 359.4395 12.46527188 20557
0 DELTA 1 DEB
1 21501U 75052FW  13287.78567112  .00000388  00000-0  16658-2 0  1120
2 21501 099.8091 221.0337 0554088 047.7330 005.9716 12.46528415 20715
0 DELTA 1 DEB
1 21501U 75052FW  13289.47274844  .00000378  00000-0  16243-2 0  1135
2 21501 099.8094 222.4208 0554136 044.2595 016.7284 12.46529915 20928
0 DELTA 1 DEB
1 21501U 75052FW  13290.51613884  .00000397  00000-0  16994-2 0  1148
2 21501 099.8095 223.2787 0554171 042.1105 018.9458 12.46530694 21051
0 DELTA 1 DEB
1 21501U 75052FW  13292.52242794  .00000395  00000-0  16944-2 0  1153
2 21501 099.8094 224.9284 0554233 037.9800 022.1818 12.46532277 21307
0 DELTA 1 DEB
1 21501U 75052FW  13293.79990976  .00000417  00000-0  17825-2 0  1160
2 21501 099.8094 225.9791 0554263 035.3485 354.8977 12.46533558 21466
0 DELTA 1 DEB
1 21501U 75052FW  13295.42287141  .00000401  00000-0  17186-2 0  1179
2 21501 099.8095 227.3139 0554278 032.0056 077.9655 12.46535280 21665
